NORAD_CAT_ID,OBJECT_NAME,OBJECT_TYPE,EPOCH,MEAN_MOTION,ECCENTRICITY,INCLINATION,RA_OF_ASC_NODE,ARG_OF_PERICENTER,MEAN_ANOMALY,BSTAR,MEAN_MOTION_DOT,MEAN_MOTION_DDOT,TLE_LINE0,TLE_LINE1,TLE_LINE2,SEMIMAJOR_AXIS,PERIOD,APOGEE,PERIGEE,DECAYED
50804.0,STARLINK-3323,PAYLOAD,2023-05-13 15:53:34,15.08852586,8.67e-05,53.2154,107.5759,93.8671,266.242,5.7999e-05,6.36e-06,0.0,0 STARLINK-3323,1 50804U 22001B   23133.66220851  .00000636  00000-0  57999-4 0  9992,2 50804  53.2154 107.5759 0000867  93.8671 266.2420 15.08852586 76146,6917.842,95.437,540.307,539.107,0.0
50804.0,STARLINK-3323,PAYLOAD,2023-05-14 04:36:40,15.08841043,0.0001261,53.2181,105.1979,96.4639,263.6497,-0.00014611,-2.613e-05,0.0,0 STARLINK-3323,1 50804U 22001B   23134.19213284 -.00002613  00000-0 -14611-3 0  9995,2 50804  53.2181 105.1979 0001261  96.4639 263.6497 15.08841043 76226,6917.877,95.437,540.615,538.87,0.0
50804.0,STARLINK-3323,PAYLOAD,2023-05-15 04:27:26,15.08851049,0.0001296,53.2183,100.7387,97.3185,262.7954,9.2692e-05,1.188e-05,0.0,0 STARLINK-3323,1 50804U 22001B   23135.18572703  .00001188  00000-0  92692-4 0  9999,2 50804  53.2183 100.7387 0001296  97.3185 262.7954 15.08851049 76377,6917.847,95.437,540.608,538.815,0.0
50804.0,STARLINK-3323,PAYLOAD,2023-05-16 04:18:14,15.08833775,0.0001222,53.2183,96.2782,92.353,267.7603,7.7068e-05,9.39e-06,0.0,0 STARLINK-3323,1 50804U 22001B   23136.17933752  .00000939  00000-0  77068-4 0  9997,2 50804  53.2183  96.2782 0001222  92.3530 267.7603 15.08833775 76522,6917.899,95.438,540.61,538.919,0.0
50804.0,STARLINK-3323,PAYLOAD,2023-05-16 20:12:06,15.08840738,0.0001183,53.2178,93.3042,90.3952,269.7176,-4.7779e-07,-2.95e-06,0.0,0 STARLINK-3323,1 50804U 22001B   23136.84173679 -.00000295  00000-0 -47779-6 0  9990,2 50804  53.2178  93.3042 0001183  90.3952 269.7176 15.08840738 75371,6917.878,95.438,540.562,538.925,0.0
50804.0,STARLINK-3323,PAYLOAD,2023-05-17 04:09:01,15.08843407,0.0001159,53.2181,91.8183,95.333,264.7794,1.9789e-05,2.7e-07,0.0,0 STARLINK-3323,1 50804U 22001B   23137.17293379  .00000027  00000-0  19789-4 0  9996,2 50804  53.2181  91.8183 0001159  95.3330 264.7794 15.08843407 76673,6917.87,95.437,540.537,538.933,0.0
50804.0,STARLINK-3323,PAYLOAD,2023-05-18 02:24:26,15.08833488,0.0001248,53.2184,87.6564,108.7428,251.37,4.6655e-05,4.55e-06,0.0,0 STARLINK-3323,1 50804U 22001B   23138.10030173  .00000455  00000-0  46655-4 0  9998,2 50804  53.2184  87.6564 0001248 108.7428 251.3700 15.08833488 76811,6917.9,95.438,540.629,538.902,0.0
50804.0,STARLINK-3323,PAYLOAD,2023-05-18 05:35:12,15.0883474,0.0001137,53.2178,87.0608,96.2511,263.861,5.1905e-05,5.38e-06,0.0,0 STARLINK-3323,1 50804U 22001B   23138.23278121  .00000538  00000-0  51905-4 0  9995,2 50804  53.2178  87.0608 0001137  96.2511 263.8610 15.08834740 75581,6917.896,95.438,540.548,538.975,0.0
50804.0,STARLINK-3323,PAYLOAD,2023-05-18 21:29:03,15.08838021,0.0001114,53.2181,84.0867,93.7583,266.3537,4.8816e-05,4.89e-06,0.0,0 STARLINK-3323,1 50804U 22001B   23138.89518099  .00000489  00000-0  48816-4 0  9990,2 50804  53.2181  84.0867 0001114  93.7583 266.3537 15.08838021 75688,6917.886,95.438,540.522,538.981,0.0
50804.0,STARLINK-3323,PAYLOAD,2023-05-19 05:25:58,15.08842955,0.000112,53.2181,82.5998,92.472,267.6401,8.1413e-05,1.008e-05,0.0,0 STARLINK-3323,1 50804U 22001B   23139.22637724  .00001008  00000-0  81413-4 0  9993,2 50804  53.2181  82.5998 0001120  92.4720 267.6401 15.08842955 76981,6917.871,95.437,540.511,538.962,0.0
50804.0,STARLINK-3323,PAYLOAD,2023-05-19 19:44:27,15.08838832,0.0001195,53.2185,79.9232,89.7129,270.4,8.037e-05,9.91e-06,0.0,0 STARLINK-3323,1 50804U 22001B   23139.82254093  .00000991  00000-0  80370-4 0  9994,2 50804  53.2185  79.9232 0001195  89.7129 270.4000 15.08838832 75828,6917.884,95.438,540.576,538.922,0.0
50804.0,STARLINK-3323,PAYLOAD,2023-05-20 03:41:22,15.08846878,0.0001285,53.2188,78.4365,87.5252,272.5887,0.00014744,2.06e-05,0.0,0 STARLINK-3323,1 50804U 22001B   23140.15373513  .00002060  00000-0  14744-3 0  9991,2 50804  53.2188  78.4365 0001285  87.5252 272.5887 15.08846878 75875,6917.859,95.437,540.613,538.835,0.0
50804.0,STARLINK-3323,PAYLOAD,2023-05-21 01:56:46,15.08852622,0.0001298,53.2189,74.2734,88.1641,271.95,0.00011821,1.595e-05,0.0,0 STARLINK-3323,1 50804U 22001B   23141.08108806  .00001595  00000-0  11821-3 0  9990,2 50804  53.2189  74.2734 0001298  88.1641 271.9500 15.08852622 77267,6917.842,95.437,540.605,538.809,0.0
50804.0,STARLINK-3323,PAYLOAD,2023-05-21 19:26:01,15.08838912,0.0001411,53.2186,71.0048,81.6474,278.4679,-1.9996e-05,-6.06e-06,0.0,0 STARLINK-3323,1 50804U 22001B   23141.80974169 -.00000606  00000-0 -19996-4 0  9999,2 50804  53.2186  71.0048 0001411  81.6474 278.4679 15.08838912 77373,6917.884,95.438,540.725,538.773,0.0
50804.0,STARLINK-3323,PAYLOAD,2023-05-22 01:47:34,15.08835185,0.0001632,53.221,69.8101,91.7534,268.3645,-4.2713e-05,-9.68e-06,0.0,0 STARLINK-3323,1 50804U 22001B   23142.07470382 -.00000968  00000-0 -42713-4 0  9991,2 50804  53.2210  69.8101 0001632  91.7534 268.3645 15.08835185 76166,6917.895,95.438,540.889,538.631,0.0
50804.0,STARLINK-3323,PAYLOAD,2023-05-23 01:38:20,15.08854082,0.0001343,53.2191,65.3501,103.1679,256.9463,7.0336e-05,8.32e-06,0.0,0 STARLINK-3323,1 50804U 22001B   23143.06828903  .00000832  00000-0  70336-4 0  9997,2 50804  53.2191  65.3501 0001343 103.1679 256.9463 15.08854082 77569,6917.837,95.437,540.631,538.773,0.0
50804.0,STARLINK-3323,PAYLOAD,2023-05-24 01:29:08,15.08826786,0.0001305,53.2195,60.8961,105.1864,254.9273,0.00016793,2.385e-05,0.0,0 STARLINK-3323,1 50804U 22001B   23144.06190721  .00002385  00000-0  16793-3 0  9999,2 50804  53.2195  60.8961 0001305 105.1864 254.9273 15.08826786 77713,6917.921,95.438,540.689,538.883,0.0
50804.0,STARLINK-3323,PAYLOAD,2023-05-25 21:59:56,15.08836312,0.0001183,53.2189,52.563,77.1122,283.0002,0.00010044,1.311e-05,0.0,0 STARLINK-3323,1 50804U 22001B   23145.91662756  .00001311  00000-0  10044-3 0  9997,2 50804  53.2189  52.5630 0001183  77.1122 283.0002 15.08836312 76747,6917.892,95.438,540.575,538.938,0.0
50804.0,STARLINK-3323,PAYLOAD,2023-05-26 02:46:05,15.08840704,0.0001108,53.2186,51.6713,86.1614,273.9505,8.0293e-05,9.9e-06,0.0,0 STARLINK-3323,1 50804U 22001B   23146.11534555  .00000990  00000-0  80293-4 0  9991,2 50804  53.2186  51.6713 0001108  86.1614 273.9505 15.08840704 78028,6917.878,95.438,540.51,538.977,0.0
50804.0,STARLINK-3323,PAYLOAD,2023-05-26 21:50:43,15.08839272,0.0001285,53.2196,48.1038,108.1236,251.9896,5.6782e-05,6.16e-06,0.0,0 STARLINK-3323,1 50804U 22001B   23146.91022820  .00000616  00000-0  56782-4 0  9997,2 50804  53.2196  48.1038 0001285 108.1236 251.9896 15.08839272 76891,6917.883,95.438,540.637,538.859,0.0
50804.0,STARLINK-3323,PAYLOAD,2023-05-27 10:33:49,15.0883466,0.0001368,53.2198,45.7243,113.9174,246.1962,3.9122e-05,3.35e-06,0.0,0 STARLINK-3323,1 50804U 22001B   23147.44015169  .00000335  00000-0  39122-4 0  9991,2 50804  53.2198  45.7243 0001368 113.9174 246.1962 15.08834660 78226,6917.897,95.438,540.708,538.815,0.0
50804.0,STARLINK-3323,PAYLOAD,2023-05-27 21:41:30,15.08840526,0.0001244,53.2189,43.6443,104.6408,255.4722,2.0292e-05,3.5e-07,0.0,0 STARLINK-3323,1 50804U 22001B   23147.90383012  .00000035  00000-0  20292-4 0  9992,2 50804  53.2189  43.6443 0001244 104.6408 255.4722 15.08840526 77049,6917.879,95.438,540.604,538.883,0.0
50804.0,STARLINK-3323,PAYLOAD,2023-05-27 23:16:54,15.08840471,0.0001147,53.219,43.3475,92.7438,267.3685,3.9095e-05,3.34e-06,0.0,0 STARLINK-3323,1 50804U 22001B   23147.97006986  .00000334  00000-0  39095-4 0  9994,2 50804  53.2190  43.3475 0001147  92.7438 267.3685 15.08840471 77055,6917.879,95.438,540.537,538.95,0.0
50804.0,STARLINK-3323,PAYLOAD,2023-05-28 21:32:17,15.08848852,0.0001155,53.2196,39.1844,98.5103,261.602,8.9273e-05,1.134e-05,0.0,0 STARLINK-3323,1 50804U 22001B   23148.89742251  .00001134  00000-0  89273-4 0  9990,2 50804  53.2196  39.1844 0001155  98.5103 261.6020 15.08848852 77192,6917.853,95.437,540.517,538.919,0.0
50804.0,STARLINK-3323,PAYLOAD,2023-05-29 02:18:26,15.08854045,0.0001188,53.2192,38.2925,97.4255,262.6872,0.00013335,1.836e-05,0.0,0 STARLINK-3323,1 50804U 22001B   23149.09613719  .00001836  00000-0  13335-3 0  9993,2 50804  53.2192  38.2925 0001188  97.4255 262.6872 15.08854045 78479,6917.837,95.437,540.524,538.881,0.0
50804.0,STARLINK-3323,PAYLOAD,2023-05-29 22:58:28,15.08832512,0.0001122,53.219,34.4282,84.2489,275.8631,2.7009e-05,1.42e-06,0.0,0 STARLINK-3323,1 50804U 22001B   23149.95727693  .00000142  00000-0  27009-4 0  9998,2 50804  53.2190  34.4282 0001122  84.2489 275.8631 15.08832512 77352,6917.903,95.438,540.544,538.992,0.0
50804.0,STARLINK-3323,PAYLOAD,2023-05-30 16:27:42,15.08849063,0.0001122,53.2193,31.1581,78.0101,282.1017,-3.7821e-05,-8.9e-06,0.0,0 STARLINK-3323,1 50804U 22001B   23150.68591031 -.00000890  00000-0 -37821-4 0  9990,2 50804  53.2193  31.1581 0001122  78.0101 282.1017 15.08849063 78712,6917.853,95.437,540.494,538.942,0.0
50804.0,STARLINK-3323,PAYLOAD,2023-05-30 22:49:13,15.08866298,0.0001267,53.2193,29.9677,86.7876,273.3261,0.0001678,2.386e-05,0.0,0 STARLINK-3323,1 50804U 22001B   23150.95085106  .00002386  00000-0  16780-3 0  9991,2 50804  53.2193  29.9677 0001267  86.7876 273.3261 15.08866298 77506,6917.8,95.436,540.541,538.789,0.0
50804.0,STARLINK-3323,PAYLOAD,2023-05-31 02:00:00,15.08857896,0.0001153,53.2193,29.3742,81.8606,278.2516,7.64e-05,9.29e-06,0.0,0 STARLINK-3323,1 50804U 22001B   23151.08333743  .00000929  00000-0  76400-4 0  9996,2 50804  53.2193  29.3742 0001153  81.8606 278.2516 15.08857896 78775,6917.826,95.436,540.488,538.893,0.0
50804.0,STARLINK-3323,PAYLOAD,2023-05-31 16:18:30,15.08831924,9.56e-05,53.2191,26.7013,54.8555,305.2527,6.7111e-05,7.8e-06,0.0,0 STARLINK-3323,1 50804U 22001B   23151.67951806  .00000780  00000-0  67111-4 0  9991,2 50804  53.2191  26.7013 0000956  54.8555 305.2527 15.08831924 78865,6917.905,95.438,540.431,539.109,0.0
